[
    {
        "Altitude(m)": 605470.7338377103,
        "Argument of Periapsis(deg)": 0.0,
        "Eccentricity": 0.0,
        "Inclination(deg)": 60.0,
        "Latitude(deg)": 27.988023797894137,
        "Longitude(deg)": -82.73705968423448,
        "Mean Anomaly(deg)": -212.7273,
        "RAAN(deg)": 215.0,
        "Satellite Name": "Test1 955",
        "Satellite Number": 955,
        "Semi-Major Axis(m)": 6980739.136638005,
        "Time(s)": 0
    },
    {
        "Altitude(m)": 605395.7724372159,
        "Argument of Periapsis(deg)": 0.00010418945913296404,
        "Eccentricity": 0.0,
        "Inclination(deg)": 60.0,
        "Latitude(deg)": 27.473714560227243,
        "Longitude(deg)": -82.38387233961505,
        "Mean Anomaly(deg)": -212.10719385453817,
        "RAAN(deg)": 214.99957995086024,
        "Satellite Name": "Test1 955",
        "Satellite Number": 955,
        "Semi-Major Axis(m)": 6980739.136638005,
        "Time(s)": 10
    }
]